[{"OBJECT_NAME":"STARLINK-31644","OBJECT_ID":"2024-062T","EPOCH":"2025-11-27T06:30:06.988608","MEAN_MOTION":15.3019403,"ECCENTRICITY":0.00011302,"INCLINATION":53.1603,"RA_OF_ASC_NODE":14.016,"ARG_OF_PERICENTER":70.5062,"MEAN_ANOMALY":289.606,"EPHEMERIS_TYPE":0,"CLASSIFICATION_TYPE":"U","NORAD_CAT_ID":59391,"ELEMENT_SET_NO":999,"REV_AT_EPOCH":9395,"BSTAR":-6.639327e-6,"MEAN_MOTION_DOT":-5.56e-6,"MEAN_MOTION_DDOT":0},{"OBJECT_NAME":"STARLINK-31626","OBJECT_ID":"2024-062U","EPOCH":"2025-11-27T06:41:21.282720","MEAN_MOTION":15.30178109,"ECCENTRICITY":6.064e-5,"INCLINATION":53.1599,"RA_OF_ASC_NODE":11.223,"ARG_OF_PERICENTER":113.3698,"MEAN_ANOMALY":246.7367,"EPHEMERIS_TYPE":0,"CLASSIFICATION_TYPE":"U","NORAD_CAT_ID":59392,"ELEMENT_SET_NO":999,"REV_AT_EPOCH":9399,"BSTAR":0.00015717947,"MEAN_MOTION_DOT":4.296e-5,"MEAN_MOTION_DDOT":0},{"OBJECT_NAME":"STARLINK-31443","OBJECT_ID":"2024-062V","EPOCH":"2025-11-27T06:35:19.938912","MEAN_MOTION":15.29353332,"ECCENTRICITY":0.00015195,"INCLINATION":53.162,"RA_OF_ASC_NODE":358.2357,"ARG_OF_PERICENTER":86.4357,"MEAN_ANOMALY":273.6817,"EPHEMERIS_TYPE":0,"CLASSIFICATION_TYPE":"U","NORAD_CAT_ID":59393,"ELEMENT_SET_NO":999,"REV_AT_EPOCH":9417,"BSTAR":5.0690791e-5,"MEAN_MOTION_DOT":1.107e-5,"MEAN_MOTION_DDOT":0},{"OBJECT_NAME":"STARLINK-31607","OBJECT_ID":"2024-062W","EPOCH":"2025-11-27T06:50:27.888864","MEAN_MOTION":15.30189159,"ECCENTRICITY":9.03e-5,"INCLINATION":53.1607,"RA_OF_ASC_NODE":11.2627,"ARG_OF_PERICENTER":71.1375,"MEAN_ANOMALY":288.9724,"EPHEMERIS_TYPE":0,"CLASSIFICATION_TYPE":"U","NORAD_CAT_ID":59394,"ELEMENT_SET_NO":999,"REV_AT_EPOCH":9398,"BSTAR":4.3507882e-5,"MEAN_MOTION_DOT":9.29e-6,"MEAN_MOTION_DDOT":0},{"OBJECT_NAME":"STARLINK-31608","OBJECT_ID":"2024-062X","EPOCH":"2025-11-27T07:33:00.817920","MEAN_MOTION":15.30188535,"ECCENTRICITY":0.00011545,"INCLINATION":53.1607,"RA_OF_ASC_NODE":11.4453,"ARG_OF_PERICENTER":83.4335,"MEAN_ANOMALY":276.6797,"EPHEMERIS_TYPE":0,"CLASSIFICATION_TYPE":"U","NORAD_CAT_ID":59397,"ELEMENT_SET_NO":999,"REV_AT_EPOCH":9394,"BSTAR":6.1817703e-5,"MEAN_MOTION_DOT":1.472e-5,"MEAN_MOTION_DDOT":0},{"OBJECT_NAME":"STARLINK-31534","OBJECT_ID":"2024-064A","EPOCH":"2025-11-27T04:29:03.086592","MEAN_MOTION":15.27577052,"ECCENTRICITY":8.388e-5,"INCLINATION":43.0025,"RA_OF_ASC_NODE":274.6885,"ARG_OF_PERICENTER":274.2405,"MEAN_ANOMALY":85.835,"EPHEMERIS_TYPE":0,"CLASSIFICATION_TYPE":"U","NORAD_CAT_ID":59398,"ELEMENT_SET_NO":999,"REV_AT_EPOCH":9349,"BSTAR":0.00012697793,"MEAN_MOTION_DOT":3.233e-5,"MEAN_MOTION_DDOT":0},{"OBJECT_NAME":"STARLINK-31544","OBJECT_ID":"2024-064B","EPOCH":"2025-11-27T05:43:04.169280","MEAN_MOTION":15.27586373,"ECCENTRICITY":0.00011233,"INCLINATION":43.0027,"RA_OF_ASC_NODE":275.0744,"ARG_OF_PERICENTER":283.5219,"MEAN_ANOMALY":76.5507,"EPHEMERIS_TYPE":0,"CLASSIFICATION_TYPE":"U","NORAD_CAT_ID":59399,"ELEMENT_SET_NO":999,"REV_AT_EPOCH":9355,"BSTAR":2.0641154e-5,"MEAN_MOTION_DOT":3.06e-6,"MEAN_MOTION_DDOT":0},{"OBJECT_NAME":"STARLINK-31545","OBJECT_ID":"2024-064C","EPOCH":"2025-11-27T04:45:43.073280","MEAN_MOTION":15.27583458,"ECCENTRICITY":9.784e-5,"INCLINATION":43.001,"RA_OF_ASC_NODE":274.7732,"ARG_OF_PERICENTER":289.5743,"MEAN_ANOMALY":70.5003,"EPHEMERIS_TYPE":0,"CLASSIFICATION_TYPE":"U","NORAD_CAT_ID":59400,"ELEMENT_SET_NO":999,"REV_AT_EPOCH":9355,"BSTAR":4.3339664e-5,"MEAN_MOTION_DOT":9.31e-6,"MEAN_MOTION_DDOT":0},{"OBJECT_NAME":"STARLINK-31507","OBJECT_ID":"2024-064D","EPOCH":"2025-11-27T04:54:57.147840","MEAN_MOTION":15.27578929,"ECCENTRICITY":0.00010407,"INCLINATION":43.0017,"RA_OF_ASC_NODE":274.8124,"ARG_OF_PERICENTER":247.4588,"MEAN_ANOMALY":112.6154,"EPHEMERIS_TYPE":0,"CLASSIFICATION_TYPE":"U","NORAD_CAT_ID":59401,"ELEMENT_SET_NO":999,"REV_AT_EPOCH":9349,"BSTAR":3.281336e-5,"MEAN_MOTION_DOT":6.41e-6,"MEAN_MOTION_DDOT":0},{"OBJECT_NAME":"STARLINK-31543","OBJECT_ID":"2024-064E","EPOCH":"2025-11-27T05:31:58.999872","MEAN_MOTION":15.2758981,"ECCENTRICITY":7.767e-5,"INCLINATION":43.0012,"RA_OF_ASC_NODE":275.0142,"ARG_OF_PERICENTER":278.6216,"MEAN_ANOMALY":81.4548,"EPHEMERIS_TYPE":0,"CLASSIFICATION_TYPE":"U","NORAD_CAT_ID":59402,"ELEMENT_SET_NO":999,"REV_AT_EPOCH":9355,"BSTAR":0.00012646469,"MEAN_MOTION_DOT":3.221e-5,"MEAN_MOTION_DDOT":0},{"OBJECT_NAME":"STARLINK-31366","OBJECT_ID":"2024-064F","EPOCH":"2025-11-27T05:11:37.283136","MEAN_MOTION":15.27593287,"ECCENTRICITY":6.399e-5,"INCLINATION":43.0018,"RA_OF_ASC_NODE":274.9016,"ARG_OF_PERICENTER":307.6174,"MEAN_ANOMALY":52.462,"EPHEMERIS_TYPE":0,"CLASSIFICATION_TYPE":"U","NORAD_CAT_ID":59403,"ELEMENT_SET_NO":999,"REV_AT_EPOCH":9355,"BSTAR":-9.8382462e-5,"MEAN_MOTION_DOT":-2.969e-5,"MEAN_MOTION_DDOT":0},{"OBJECT_NAME":"STARLINK-31374","OBJECT_ID":"2024-064G","EPOCH":"2025-11-27T01:33:38.154816","MEAN_MOTION":15.27589878,"ECCENTRICITY":8.805e-5,"INCLINATION":42.9976,"RA_OF_ASC_NODE":224.6761,"ARG_OF_PERICENTER":310.3316,"MEAN_ANOMALY":49.7459,"EPHEMERIS_TYPE":0,"CLASSIFICATION_TYPE":"U","NORAD_CAT_ID":59404,"ELEMENT_SET_NO":999,"REV_AT_EPOCH":9386,"BSTAR":0.00061404932,"MEAN_MOTION_DOT":0.00016679,"MEAN_MOTION_DDOT":0},{"OBJECT_NAME":"STARLINK-31400","OBJECT_ID":"2024-064H","EPOCH":"2025-11-26T06:36:25.901856","MEAN_MOTION":15.27568431,"ECCENTRICITY":9.087e-5,"INCLINATION":43.0009,"RA_OF_ASC_NODE":279.8827,"ARG_OF_PERICENTER":253.6014,"MEAN_ANOMALY":106.4737,"EPHEMERIS_TYPE":0,"CLASSIFICATION_TYPE":"U","NORAD_CAT_ID":59405,"ELEMENT_SET_NO":999,"REV_AT_EPOCH":9341,"BSTAR":-1.5966807e-5,"MEAN_MOTION_DOT":-7.01e-6,"MEAN_MOTION_DDOT":0},{"OBJECT_NAME":"STARLINK-31391","OBJECT_ID":"2024-064J","EPOCH":"2025-11-27T04:40:09.271200","MEAN_MOTION":15.2760644,"ECCENTRICITY":9.413e-5,"INCLINATION":42.9989,"RA_OF_ASC_NODE":274.7436,"ARG_OF_PERICENTER":290.8014,"MEAN_ANOMALY":69.2736,"EPHEMERIS_TYPE":0,"CLASSIFICATION_TYPE":"U","NORAD_CAT_ID":59406,"ELEMENT_SET_NO":999,"REV_AT_EPOCH":9355,"BSTAR":-0.00017263322,"MEAN_MOTION_DOT":-5.013e-5,"MEAN_MOTION_DDOT":0},{"OBJECT_NAME":"STARLINK-31387","OBJECT_ID":"2024-064K","EPOCH":"2025-11-27T05:37:30.237600","MEAN_MOTION":15.27627448,"ECCENTRICITY":0.00014271,"INCLINATION":43.0019,"RA_OF_ASC_NODE":275.0434,"ARG_OF_PERICENTER":260.7082,"MEAN_ANOMALY":99.3608,"EPHEMERIS_TYPE":0,"CLASSIFICATION_TYPE":"U","NORAD_CAT_ID":59407,"ELEMENT_SET_NO":999,"REV_AT_EPOCH":9355,"BSTAR":-0.00033280119,"MEAN_MOTION_DOT":-9.422e-5,"MEAN_MOTION_DDOT":0},{"OBJECT_NAME":"STARLINK-31396","OBJECT_ID":"2024-064M","EPOCH":"2025-11-26T13:15:29.538144","MEAN_MOTION":15.27569209,"ECCENTRICITY":0.00014143,"INCLINATION":42.9988,"RA_OF_ASC_NODE":268.133,"ARG_OF_PERICENTER":261.6667,"MEAN_ANOMALY":98.4024,"EPHEMERIS_TYPE":0,"CLASSIFICATION_TYPE":"U","NORAD_CAT_ID":59409,"ELEMENT_SET_NO":999,"REV_AT_EPOCH":9351,"BSTAR":-1.4380936e-5,"MEAN_MOTION_DOT":-6.58e-6,"MEAN_MOTION_DDOT":0}]
