STARLINK-31644          
1 59391U 24062T   25331.27091422 -.00000556  00000+0 -66393-5 0  9991
2 59391  53.1603  14.0160 0001130  70.5062 289.6060 15.30194030 93957
STARLINK-31626          
1 59392U 24062U   25331.27871855  .00004296  00000+0  15718-3 0  9994
2 59392  53.1599  11.2230 0000606 113.3698 246.7367 15.30178109 93994
STARLINK-31443          
1 59393U 24062V   25331.27453633  .00001107  00000+0  50691-4 0  9993
2 59393  53.1620 358.2357 0001519  86.4357 273.6817 15.29353332 94171
STARLINK-31607          
1 59394U 24062W   25331.28504501  .00000929  00000+0  43508-4 0  9996
2 59394  53.1607  11.2627 0000903  71.1375 288.9724 15.30189159 93980
STARLINK-31608          
1 59397U 24062X   25331.31459280  .00001472  00000+0  61818-4 0  9994
2 59397  53.1607  11.4453 0001154  83.4335 276.6797 15.30188535 93940
STARLINK-31534          
1 59398U 24064A   25331.18684128  .00003233  00000+0  12698-3 0  9991
2 59398  43.0025 274.6885 0000838 274.2405  85.8350 15.27577052 93498
STARLINK-31544          
1 59399U 24064B   25331.23824270  .00000306  00000+0  20641-4 0  9998
2 59399  43.0027 275.0744 0001123 283.5219  76.5507 15.27586373 93558
STARLINK-31545          
1 59400U 24064C   25331.19841520  .00000931  00000+0  43340-4 0  9998
2 59400  43.0010 274.7732 0000978 289.5743  70.5003 15.27583458 93557
STARLINK-31507          
1 59401U 24064D   25331.20482810  .00000641  00000+0  32813-4 0  9995
2 59401  43.0017 274.8124 0001040 247.4588 112.6154 15.27578929 93497
STARLINK-31543          
1 59402U 24064E   25331.23054398  .00003221  00000+0  12646-3 0  9993
2 59402  43.0012 275.0142 0000776 278.6216  81.4548 15.27589810 93553
STARLINK-31366          
1 59403U 24064F   25331.21640374 -.00002969  00000+0 -98382-4 0  9999
2 59403  43.0018 274.9016 0000639 307.6174  52.4620 15.27593287 93554
STARLINK-31374          
1 59404U 24064G   25331.06502494  .00016679  00000+0  61405-3 0  9999
2 59404  42.9976 224.6761 0000880 310.3316  49.7459 15.27589878 93866
STARLINK-31400          
1 59405U 24064H   25330.27529979 -.00000701  00000+0 -15967-4 0  9993
2 59405  43.0009 279.8827 0000908 253.6014 106.4737 15.27568431 93419
STARLINK-31391          
1 59406U 24064J   25331.19455175 -.00005013  00000+0 -17263-3 0  9993
2 59406  42.9989 274.7436 0000941 290.8014  69.2736 15.27606440 93558
STARLINK-31387          
1 59407U 24064K   25331.23437775 -.00009422  00000+0 -33280-3 0  9990
2 59407  43.0019 275.0434 0001427 260.7082  99.3608 15.27627448 93551
STARLINK-31396          
1 59409U 24064M   25330.55242521 -.00000658  00000+0 -14381-4 0  9993
2 59409  42.9988 268.1330 0001414 261.6667  98.4024 15.27569209 93517
